{"type": "FeatureCollection", "features": [{"type": "Feature", "properties": {"norad_id": 28890, "name": "BEIJING 1", "group": "dmc", "lat": -56.296054448128075, "lon": 123.28913885775849, "alt_km": 698.714655725109, "timestamp": "2025-12-09T04:51:47.174767+00:00", "meta": {"OBJECT_NAME": "BEIJING 1", "OBJECT_ID": "2005-043A", "EPOCH": "2025-12-08T20:55:10.884864", "MEAN_MOTION": 14.63361705, "ECCENTRICITY": 0.0015069, "INCLINATION": 98.2656, "RA_OF_ASC_NODE": 110.3696, "ARG_OF_PERICENTER": 152.7382, "MEAN_ANOMALY": 207.4614, "EPHEMERIS_TYPE": 0, "CLASSIFICATION_TYPE": "U", "NORAD_CAT_ID": 28890, "ELEMENT_SET_NO": 999, "REV_AT_EPOCH": 7281, "BSTAR": 0.00020815, "MEAN_MOTION_DOT": 1.028e-05, "MEAN_MOTION_DDOT": 0}, "tle": {"line1": "1 28890U 05043A   25342.87165376  .00001028  00000+0  20815-3 0  9997", "line2": "2 28890  98.2656 110.3696 0015069 152.7382 207.4614 14.63361705 72818"}}, "geometry": {"type": "Point", "coordinates": [123.28913885775849, -56.296054448128075]}}, {"type": "Feature", "properties": {"norad_id": 33320, "name": "HUANJING 1A (HJ-1A)", "group": "dmc", "lat": 73.92954809276188, "lon": -56.17845235868048, "alt_km": 599.331604422131, "timestamp": "2025-12-09T04:51:47.174793+00:00", "meta": {"OBJECT_NAME": "HUANJING 1A (HJ-1A)", "OBJECT_ID": "2008-041A", "EPOCH": "2025-12-08T20:25:45.066720", "MEAN_MOTION": 14.83375132, "ECCENTRICITY": 0.002037, "INCLINATION": 97.6538, "RA_OF_ASC_NODE": 331.3118, "ARG_OF_PERICENTER": 46.5497, "MEAN_ANOMALY": 313.7408, "EPHEMERIS_TYPE": 0, "CLASSIFICATION_TYPE": "U", "NORAD_CAT_ID": 33320, "ELEMENT_SET_NO": 999, "REV_AT_EPOCH": 93018, "BSTAR": 0.00035082, "MEAN_MOTION_DOT": 2.836e-05, "MEAN_MOTION_DDOT": 0}, "tle": {"line1": "1 33320U 08041A   25342.85121605  .00002836  00000+0  35082-3 0  9997", "line2": "2 33320  97.6538 331.3118 0020370  46.5497 313.7408 14.83375132930182"}}, "geometry": {"type": "Point", "coordinates": [-56.17845235868048, 73.92954809276188]}}, {"type": "Feature", "properties": {"norad_id": 33321, "name": "HUANJING 1B (HJ-1B)", "group": "dmc", "lat": -55.46711579793163, "lon": -13.397494794242824, "alt_km": 648.882535132374, "timestamp": "2025-12-09T04:51:47.174809+00:00", "meta": {"OBJECT_NAME": "HUANJING 1B (HJ-1B)", "OBJECT_ID": "2008-041B", "EPOCH": "2025-12-08T21:01:09.424992", "MEAN_MOTION": 14.82805494, "ECCENTRICITY": 0.0038228, "INCLINATION": 97.6395, "RA_OF_ASC_NODE": 335.0424, "ARG_OF_PERICENTER": 87.9351, "MEAN_ANOMALY": 272.6241, "EPHEMERIS_TYPE": 0, "CLASSIFICATION_TYPE": "U", "NORAD_CAT_ID": 33321, "ELEMENT_SET_NO": 999, "REV_AT_EPOCH": 93020, "BSTAR": 0.00024812, "MEAN_MOTION_DOT": 1.981e-05, "MEAN_MOTION_DDOT": 0}, "tle": {"line1": "1 33321U 08041B   25342.87580353  .00001981  00000+0  24812-3 0  9998", "line2": "2 33321  97.6395 335.0424 0038228  87.9351 272.6241 14.82805494930203"}}, "geometry": {"type": "Point", "coordinates": [-13.397494794242824, -55.46711579793163]}}, {"type": "Feature", "properties": {"norad_id": 33446, "name": "YAOGAN-4", "group": "dmc", "lat": -36.986364427373516, "lon": 87.31957034497442, "alt_km": 631.8808337461587, "timestamp": "2025-12-09T04:51:47.174822+00:00", "meta": {"OBJECT_NAME": "YAOGAN-4", "OBJECT_ID": "2008-061A", "EPOCH": "2025-12-08T19:47:11.729184", "MEAN_MOTION": 14.82664885, "ECCENTRICITY": 0.0013919, "INCLINATION": 97.9177, "RA_OF_ASC_NODE": 272.962, "ARG_OF_PERICENTER": 336.595, "MEAN_ANOMALY": 23.4628, "EPHEMERIS_TYPE": 0, "CLASSIFICATION_TYPE": "U", "NORAD_CAT_ID": 33446, "ELEMENT_SET_NO": 999, "REV_AT_EPOCH": 91745, "BSTAR": 0.00038742, "MEAN_MOTION_DOT": 3.075e-05, "MEAN_MOTION_DDOT": 0}, "tle": {"line1": "1 33446U 08061A   25342.82444131  .00003075  00000+0  38742-3 0  9999", "line2": "2 33446  97.9177 272.9620 0013919 336.5950  23.4628 14.82664885917457"}}, "geometry": {"type": "Point", "coordinates": [87.31957034497442, -36.986364427373516]}}, {"type": "Feature", "properties": {"norad_id": 35681, "name": "DEIMOS-1", "group": "dmc", "lat": 81.09785197052022, "lon": 84.03984303059114, "alt_km": 635.9953190845399, "timestamp": "2025-12-09T04:51:47.174833+00:00", "meta": {"OBJECT_NAME": "DEIMOS-1", "OBJECT_ID": "2009-041A", "EPOCH": "2025-12-08T20:20:09.487392", "MEAN_MOTION": 14.74944311, "ECCENTRICITY": 0.0002709, "INCLINATION": 97.7145, "RA_OF_ASC_NODE": 143.6315, "ARG_OF_PERICENTER": 85.7142, "MEAN_ANOMALY": 274.4377, "EPHEMERIS_TYPE": 0, "CLASSIFICATION_TYPE": "U", "NORAD_CAT_ID": 35681, "ELEMENT_SET_NO": 999, "REV_AT_EPOCH": 87882, "BSTAR": 0.00019693, "MEAN_MOTION_DOT": 1.276e-05, "MEAN_MOTION_DDOT": 0}, "tle": {"line1": "1 35681U 09041A   25342.84733203  .00001276  00000+0  19693-3 0  9999", "line2": "2 35681  97.7145 143.6315 0002709  85.7142 274.4377 14.74944311878821"}}, "geometry": {"type": "Point", "coordinates": [84.03984303059114, 81.09785197052022]}}, {"type": "Feature", "properties": {"norad_id": 35683, "name": "UK-DMC 2", "group": "dmc", "lat": 81.86432984766098, "lon": 13.189479191397101, "alt_km": 634.802484934824, "timestamp": "2025-12-09T04:51:47.174843+00:00", "meta": {"OBJECT_NAME": "UK-DMC 2", "OBJECT_ID": "2009-041C", "EPOCH": "2025-12-08T20:18:36.743904", "MEAN_MOTION": 14.75609397, "ECCENTRICITY": 0.0001358, "INCLINATION": 97.8562, "RA_OF_ASC_NODE": 117.8592, "ARG_OF_PERICENTER": 96.0202, "MEAN_ANOMALY": 264.1162, "EPHEMERIS_TYPE": 0, "CLASSIFICATION_TYPE": "U", "NORAD_CAT_ID": 35683, "ELEMENT_SET_NO": 999, "REV_AT_EPOCH": 87849, "BSTAR": 0.00026856, "MEAN_MOTION_DOT": 1.783e-05, "MEAN_MOTION_DDOT": 0}, "tle": {"line1": "1 35683U 09041C   25342.84625861  .00001783  00000+0  26856-3 0  9993", "line2": "2 35683  97.8562 117.8592 0001358  96.0202 264.1162 14.75609397878492"}}, "geometry": {"type": "Point", "coordinates": [13.189479191397101, 81.86432984766098]}}, {"type": "Feature", "properties": {"norad_id": 40715, "name": "DMC3-FM1", "group": "dmc", "lat": 16.035700811590228, "lon": -151.6961052350126, "alt_km": 610.3636287251647, "timestamp": "2025-12-09T04:51:47.174854+00:00", "meta": {"OBJECT_NAME": "DMC3-FM1", "OBJECT_ID": "2015-032A", "EPOCH": "2025-12-08T20:42:25.523424", "MEAN_MOTION": 14.85431424, "ECCENTRICITY": 0.0004926, "INCLINATION": 97.669, "RA_OF_ASC_NODE": 210.1961, "ARG_OF_PERICENTER": 336.2502, "MEAN_ANOMALY": 23.8485, "EPHEMERIS_TYPE": 0, "CLASSIFICATION_TYPE": "U", "NORAD_CAT_ID": 40715, "ELEMENT_SET_NO": 999, "REV_AT_EPOCH": 56165, "BSTAR": 0.00022, "MEAN_MOTION_DOT": 1.845e-05, "MEAN_MOTION_DDOT": 0}, "tle": {"line1": "1 40715U 15032A   25342.86279541  .00001845  00000+0  22000-3 0  9990", "line2": "2 40715  97.6690 210.1961 0004926 336.2502  23.8485 14.85431424561657"}}, "geometry": {"type": "Point", "coordinates": [-151.6961052350126, 16.035700811590228]}}, {"type": "Feature", "properties": {"norad_id": 40716, "name": "DMC3-FM2", "group": "dmc", "lat": -74.06366755744823, "lon": 3.78404491263387, "alt_km": 619.1462023629274, "timestamp": "2025-12-09T04:51:47.174864+00:00", "meta": {"OBJECT_NAME": "DMC3-FM2", "OBJECT_ID": "2015-032B", "EPOCH": "2025-12-08T21:14:49.424928", "MEAN_MOTION": 14.85433881, "ECCENTRICITY": 0.0005623, "INCLINATION": 97.6749, "RA_OF_ASC_NODE": 211.6592, "ARG_OF_PERICENTER": 341.2099, "MEAN_ANOMALY": 18.8908, "EPHEMERIS_TYPE": 0, "CLASSIFICATION_TYPE": "U", "NORAD_CAT_ID": 40716, "ELEMENT_SET_NO": 999, "REV_AT_EPOCH": 56165, "BSTAR": 0.000205, "MEAN_MOTION_DOT": 1.716e-05, "MEAN_MOTION_DDOT": 0}, "tle": {"line1": "1 40716U 15032B   25342.88529427  .00001716  00000+0  20500-3 0  9994", "line2": "2 40716  97.6749 211.6592 0005623 341.2099  18.8908 14.85433881561654"}}, "geometry": {"type": "Point", "coordinates": [3.78404491263387, -74.06366755744823]}}, {"type": "Feature", "properties": {"norad_id": 40717, "name": "DMC3-FM3", "group": "dmc", "lat": 38.88270547117058, "lon": 39.84299863922465, "alt_km": 612.6474114944713, "timestamp": "2025-12-09T04:51:47.174874+00:00", "meta": {"OBJECT_NAME": "DMC3-FM3", "OBJECT_ID": "2015-032C", "EPOCH": "2025-12-08T21:45:55.507680", "MEAN_MOTION": 14.85420671, "ECCENTRICITY": 0.0005035, "INCLINATION": 97.6804, "RA_OF_ASC_NODE": 213.3103, "ARG_OF_PERICENTER": 342.7461, "MEAN_ANOMALY": 17.3583, "EPHEMERIS_TYPE": 0, "CLASSIFICATION_TYPE": "U", "NORAD_CAT_ID": 40717, "ELEMENT_SET_NO": 999, "REV_AT_EPOCH": 56166, "BSTAR": 7.487e-05, "MEAN_MOTION_DOT": 5.93e-06, "MEAN_MOTION_DDOT": 0}, "tle": {"line1": "1 40717U 15032C   25342.90689245  .00000593  00000+0  74870-4 0  9995", "line2": "2 40717  97.6804 213.3103 0005035 342.7461  17.3583 14.85420671561667"}}, "geometry": {"type": "Point", "coordinates": [39.84299863922465, 38.88270547117058]}}]}